[{"OBJECT_NAME":"SL-14 R/B","OBJECT_ID":"1986-006B","EPOCH":"2026-04-14T06:08:35.084832","MEAN_MOTION":14.86878151,"ECCENTRICITY":0.00771818,"INCLINATION":82.5279,"RA_OF_ASC_NODE":226.2612,"ARG_OF_PERICENTER":153.8198,"MEAN_ANOMALY":206.6955,"EPHEMERIS_TYPE":0,"CLASSIFICATION_TYPE":"U","NORAD_CAT_ID":16496,"ELEMENT_SET_NO":999,"REV_AT_EPOCH":15449,"BSTAR":5.375836e-5,"MEAN_MOTION_DOT":5.34e-6,"MEAN_MOTION_DDOT":0},{"OBJECT_NAME":"COSMOS 1743","OBJECT_ID":"1986-034A","EPOCH":"2026-04-13T17:27:38.488320","MEAN_MOTION":15.6174648,"ECCENTRICITY":0.0006829,"INCLINATION":82.5306,"RA_OF_ASC_NODE":36.9726,"ARG_OF_PERICENTER":131.3227,"MEAN_ANOMALY":228.8619,"EPHEMERIS_TYPE":0,"CLASSIFICATION_TYPE":"U","NORAD_CAT_ID":16719,"ELEMENT_SET_NO":999,"REV_AT_EPOCH":18571,"BSTAR":0.00031124,"MEAN_MOTION_DOT":0.00026979,"MEAN_MOTION_DDOT":0},{"OBJECT_NAME":"SL-14 R/B","OBJECT_ID":"1986-046B","EPOCH":"2026-04-14T05:39:21.598560","MEAN_MOTION":14.85626629,"ECCENTRICITY":0.00246273,"INCLINATION":82.4833,"RA_OF_ASC_NODE":46.5923,"ARG_OF_PERICENTER":109.2246,"MEAN_ANOMALY":251.1638,"EPHEMERIS_TYPE":0,"CLASSIFICATION_TYPE":"U","NORAD_CAT_ID":16792,"ELEMENT_SET_NO":999,"REV_AT_EPOCH":13168,"BSTAR":3.0953299e-5,"MEAN_MOTION_DOT":2.94e-6,"MEAN_MOTION_DDOT":0},{"OBJECT_NAME":"SL-14 R/B","OBJECT_ID":"1986-055B","EPOCH":"2026-04-14T05:17:28.671072","MEAN_MOTION":14.85675402,"ECCENTRICITY":0.00180196,"INCLINATION":82.5171,"RA_OF_ASC_NODE":93.2656,"ARG_OF_PERICENTER":210.4219,"MEAN_ANOMALY":160.1223,"EPHEMERIS_TYPE":0,"CLASSIFICATION_TYPE":"U","NORAD_CAT_ID":16882,"ELEMENT_SET_NO":999,"REV_AT_EPOCH":12464,"BSTAR":2.9787506e-5,"MEAN_MOTION_DOT":2.83e-6,"MEAN_MOTION_DDOT":0},{"OBJECT_NAME":"AJISAI (EGS)","OBJECT_ID":"1986-061A","EPOCH":"2026-04-14T07:11:33.259200","MEAN_MOTION":12.44515782,"ECCENTRICITY":0.00113945,"INCLINATION":50.012,"RA_OF_ASC_NODE":343.8491,"ARG_OF_PERICENTER":18.5411,"MEAN_ANOMALY":87.6566,"EPHEMERIS_TYPE":0,"CLASSIFICATION_TYPE":"U","NORAD_CAT_ID":16908,"ELEMENT_SET_NO":999,"REV_AT_EPOCH":47243,"BSTAR":4.489068e-5,"MEAN_MOTION_DOT":-9.1e-7,"MEAN_MOTION_DDOT":0},{"OBJECT_NAME":"SL-14 R/B","OBJECT_ID":"1987-024B","EPOCH":"2026-04-14T06:08:49.839360","MEAN_MOTION":14.86167627,"ECCENTRICITY":0.00192388,"INCLINATION":82.528,"RA_OF_ASC_NODE":59.3286,"ARG_OF_PERICENTER":139.1538,"MEAN_ANOMALY":221.1125,"EPHEMERIS_TYPE":0,"CLASSIFICATION_TYPE":"U","NORAD_CAT_ID":17567,"ELEMENT_SET_NO":999,"REV_AT_EPOCH":9341,"BSTAR":2.9418353e-5,"MEAN_MOTION_DOT":2.84e-6,"MEAN_MOTION_DDOT":0},{"OBJECT_NAME":"COSMOS 1833","OBJECT_ID":"1987-027A","EPOCH":"2026-04-13T16:32:05.460576","MEAN_MOTION":14.13039289,"ECCENTRICITY":0.0022631,"INCLINATION":70.9162,"RA_OF_ASC_NODE":252.4495,"ARG_OF_PERICENTER":161.2812,"MEAN_ANOMALY":198.9147,"EPHEMERIS_TYPE":0,"CLASSIFICATION_TYPE":"U","NORAD_CAT_ID":17589,"ELEMENT_SET_NO":999,"REV_AT_EPOCH":1526,"BSTAR":-0.00014038,"MEAN_MOTION_DOT":-3.11e-6,"MEAN_MOTION_DDOT":0},{"OBJECT_NAME":"SL-16 R/B","OBJECT_ID":"1987-027B","EPOCH":"2026-04-14T06:24:13.097664","MEAN_MOTION":14.17169442,"ECCENTRICITY":0.0003035,"INCLINATION":71.0036,"RA_OF_ASC_NODE":201.5231,"ARG_OF_PERICENTER":50.4174,"MEAN_ANOMALY":309.7217,"EPHEMERIS_TYPE":0,"CLASSIFICATION_TYPE":"U","NORAD_CAT_ID":17590,"ELEMENT_SET_NO":999,"REV_AT_EPOCH":2038,"BSTAR":-9.7192423e-5,"MEAN_MOTION_DOT":-2.44e-6,"MEAN_MOTION_DDOT":0},{"OBJECT_NAME":"SL-14 R/B","OBJECT_ID":"1987-038B","EPOCH":"2026-04-13T17:31:47.817120","MEAN_MOTION":14.85402967,"ECCENTRICITY":0.0020392,"INCLINATION":82.4987,"RA_OF_ASC_NODE":263.7864,"ARG_OF_PERICENTER":51.7674,"MEAN_ANOMALY":308.5374,"EPHEMERIS_TYPE":0,"CLASSIFICATION_TYPE":"U","NORAD_CAT_ID":17912,"ELEMENT_SET_NO":999,"REV_AT_EPOCH":8443,"BSTAR":3.1799e-5,"MEAN_MOTION_DOT":2.99e-6,"MEAN_MOTION_DDOT":0},{"OBJECT_NAME":"COSMOS 1844","OBJECT_ID":"1987-041A","EPOCH":"2026-04-14T00:57:57.352032","MEAN_MOTION":14.14564931,"ECCENTRICITY":0.00322848,"INCLINATION":70.9004,"RA_OF_ASC_NODE":319.6147,"ARG_OF_PERICENTER":325.8134,"MEAN_ANOMALY":34.0908,"EPHEMERIS_TYPE":0,"CLASSIFICATION_TYPE":"U","NORAD_CAT_ID":17973,"ELEMENT_SET_NO":999,"REV_AT_EPOCH":858,"BSTAR":-1.5228603e-5,"MEAN_MOTION_DOT":-7.8e-7,"MEAN_MOTION_DDOT":0},{"OBJECT_NAME":"SL-14 R/B","OBJECT_ID":"1987-055B","EPOCH":"2026-04-14T00:54:31.992192","MEAN_MOTION":14.85662407,"ECCENTRICITY":0.0019151,"INCLINATION":82.4979,"RA_OF_ASC_NODE":315.7154,"ARG_OF_PERICENTER":255.8197,"MEAN_ANOMALY":104.0891,"EPHEMERIS_TYPE":0,"CLASSIFICATION_TYPE":"U","NORAD_CAT_ID":18153,"ELEMENT_SET_NO":999,"REV_AT_EPOCH":7518,"BSTAR":2.5855235e-5,"MEAN_MOTION_DOT":2.49e-6,"MEAN_MOTION_DDOT":0},{"OBJECT_NAME":"COSMOS 1867","OBJECT_ID":"1987-060A","EPOCH":"2026-04-14T06:43:27.074208","MEAN_MOTION":14.31508656,"ECCENTRICITY":0.0015165,"INCLINATION":65.0109,"RA_OF_ASC_NODE":207.0312,"ARG_OF_PERICENTER":280.526,"MEAN_ANOMALY":79.4115,"EPHEMERIS_TYPE":0,"CLASSIFICATION_TYPE":"U","NORAD_CAT_ID":18187,"ELEMENT_SET_NO":999,"REV_AT_EPOCH":2503,"BSTAR":1.7445621e-5,"MEAN_MOTION_DOT":-5.4e-7,"MEAN_MOTION_DDOT":0},{"OBJECT_NAME":"SL-14 R/B","OBJECT_ID":"1988-001B","EPOCH":"2026-04-14T04:05:21.543936","MEAN_MOTION":14.85564419,"ECCENTRICITY":0.00194811,"INCLINATION":82.5142,"RA_OF_ASC_NODE":161.9989,"ARG_OF_PERICENTER":118.94,"MEAN_ANOMALY":241.3773,"EPHEMERIS_TYPE":0,"CLASSIFICATION_TYPE":"U","NORAD_CAT_ID":18749,"ELEMENT_SET_NO":999,"REV_AT_EPOCH":4729,"BSTAR":2.6127621e-5,"MEAN_MOTION_DOT":2.51e-6,"MEAN_MOTION_DDOT":0},{"OBJECT_NAME":"COSMOS 1933","OBJECT_ID":"1988-020A","EPOCH":"2026-04-14T06:00:31.281984","MEAN_MOTION":15.1832656,"ECCENTRICITY":0.0005461,"INCLINATION":82.5147,"RA_OF_ASC_NODE":215.7215,"ARG_OF_PERICENTER":82.64,"MEAN_ANOMALY":277.5455,"EPHEMERIS_TYPE":0,"CLASSIFICATION_TYPE":"U","NORAD_CAT_ID":18958,"ELEMENT_SET_NO":999,"REV_AT_EPOCH":5562,"BSTAR":0.00013269106,"MEAN_MOTION_DOT":2.754e-5,"MEAN_MOTION_DDOT":0},{"OBJECT_NAME":"SL-3 R/B","OBJECT_ID":"1988-032B","EPOCH":"2026-04-14T05:06:59.431104","MEAN_MOTION":15.20301205,"ECCENTRICITY":0.00275811,"INCLINATION":97.5226,"RA_OF_ASC_NODE":87.3598,"ARG_OF_PERICENTER":108.9278,"MEAN_ANOMALY":251.495,"EPHEMERIS_TYPE":0,"CLASSIFICATION_TYPE":"U","NORAD_CAT_ID":19046,"ELEMENT_SET_NO":999,"REV_AT_EPOCH":5750,"BSTAR":0.00013079317,"MEAN_MOTION_DOT":2.798e-5,"MEAN_MOTION_DDOT":0},{"OBJECT_NAME":"SL-16 R/B","OBJECT_ID":"1988-039B","EPOCH":"2026-04-14T03:23:11.796000","MEAN_MOTION":14.19622536,"ECCENTRICITY":0.00240131,"INCLINATION":71.0169,"RA_OF_ASC_NODE":353.5876,"ARG_OF_PERICENTER":284.0775,"MEAN_ANOMALY":75.7681,"EPHEMERIS_TYPE":0,"CLASSIFICATION_TYPE":"U","NORAD_CAT_ID":19120,"ELEMENT_SET_NO":999,"REV_AT_EPOCH":96341,"BSTAR":5.8758204e-5,"MEAN_MOTION_DOT":7.6e-7,"MEAN_MOTION_DDOT":0},{"OBJECT_NAME":"COSMOS 1953","OBJECT_ID":"1988-050A","EPOCH":"2026-04-14T07:07:54.923808","MEAN_MOTION":15.29078081,"ECCENTRICITY":0.00107928,"INCLINATION":82.5051,"RA_OF_ASC_NODE":122.4141,"ARG_OF_PERICENTER":9.4377,"MEAN_ANOMALY":350.7063,"EPHEMERIS_TYPE":0,"CLASSIFICATION_TYPE":"U","NORAD_CAT_ID":19210,"ELEMENT_SET_NO":999,"REV_AT_EPOCH":4322,"BSTAR":0.00013257872,"MEAN_MOTION_DOT":3.781e-5,"MEAN_MOTION_DDOT":0}]
