SL-14 R/B               
1 16496U 86006B   26104.25596163  .00000534  00000+0  53758-4 0  9999
2 16496  82.5279 226.2612 0077181 153.8198 206.6955 14.86878151154496
COSMOS 1743             
1 16719U 86034A   26103.72752880  .00026979  00000+0  31124-3 0  9992
2 16719  82.5306  36.9726 0006829 131.3227 228.8619 15.61746480185717
SL-14 R/B               
1 16792U 86046B   26104.23566665  .00000294  00000+0  30953-4 0  9999
2 16792  82.4833  46.5923 0024627 109.2246 251.1638 14.85626629131683
SL-14 R/B               
1 16882U 86055B   26104.22047073  .00000283  00000+0  29788-4 0  9997
2 16882  82.5171  93.2656 0018019 210.4219 160.1223 14.85675402124644
AJISAI (EGS)            
1 16908U 86061A   26104.29969050 -.00000091  00000+0  44891-4 0  9998
2 16908  50.0120 343.8491 0011394  18.5411  87.6566 12.44515782472431
SL-14 R/B               
1 17567U 87024B   26104.25613240  .00000284  00000+0  29418-4 0  9994
2 17567  82.5280  59.3286 0019238 139.1538 221.1125 14.86167627 93418
COSMOS 1833             
1 17589U 87027A   26103.68895209 -.00000311  00000+0 -14038-3 0  9998
2 17589  70.9162 252.4495 0022631 161.2812 198.9147 14.13039289 15266
SL-16 R/B               
1 17590U 87027B   26104.26681826 -.00000244  00000+0 -97192-4 0  9991
2 17590  71.0036 201.5231 0003035  50.4174 309.7217 14.17169442 20388
SL-14 R/B               
1 17912U 87038B   26103.73041455  .00000299  00000+0  31799-4 0  9999
2 17912  82.4987 263.7864 0020392  51.7674 308.5374 14.85402967 84437
COSMOS 1844             
1 17973U 87041A   26104.04024713 -.00000078  00000+0 -15229-4 0  9990
2 17973  70.9004 319.6147 0032284 325.8134  34.0908 14.14564931  8588
SL-14 R/B               
1 18153U 87055B   26104.03787028  .00000249  00000+0  25855-4 0  9994
2 18153  82.4979 315.7154 0019151 255.8197 104.0891 14.85662407 75186
COSMOS 1867             
1 18187U 87060A   26104.28017447 -.00000054  00000+0  17446-4 0  9997
2 18187  65.0109 207.0312 0015165 280.5260  79.4115 14.31508656 25030
SL-14 R/B               
1 18749U 88001B   26104.17038824  .00000251  00000+0  26128-4 0  9992
2 18749  82.5142 161.9989 0019481 118.9400 241.3773 14.85564419 47298
COSMOS 1933             
1 18958U 88020A   26104.25036206  .00002754  00000+0  13269-3 0  9997
2 18958  82.5147 215.7215 0005461  82.6400 277.5455 15.18326560 55629
SL-3 R/B                
1 19046U 88032B   26104.21318786  .00002798  00000+0  13079-3 0  9998
2 19046  97.5226  87.3598 0027581 108.9278 251.4950 15.20301205 57503
SL-16 R/B               
1 19120U 88039B   26104.14110875  .00000076  00000+0  58758-4 0  9990
2 19120  71.0169 353.5876 0024013 284.0775  75.7681 14.19622536963415
COSMOS 1953             
1 19210U 88050A   26104.29716347  .00003781  00000+0  13258-3 0  9996
2 19210  82.5051 122.4141 0010792   9.4377 350.7063 15.29078081 43226
